25943,GLOBALSTAR M057,1999,117.57,-1.0,-,52.0,Inactive,0,LEO,Kazakhstan,Globalstar,Unknown,Unknown,Unknown,1 25943U 99058A   24158.96429280 -.00000114  00000+0 -19093-3 0  9996,2 25943  52.0005 333.0493 0001560 337.2381  22.8399 12.24787177120957,12.24787177,0.000156,LEO
25944,GLOBALSTAR M059,1999,120.0,-1.0,-,52.0,Inactive,0,LEO,Kazakhstan,Globalstar,Unknown,Unknown,Unknown,1 25944U 99058B   24159.35596443 -.00000080  00000+0  76346-4 0  9993,2 25944  51.9990 141.1956 0000683 304.7629 203.9647 11.99962901529042,11.99962901,6.83e-05,LEO
25945,GLOBALSTAR M056,1999,119.52,-1.0,-,51.99,Inactive,0,LEO,Kazakhstan,Globalstar,Unknown,Unknown,Unknown,1 25945U 99058C   24159.69576736 -.00000142  00000+0 -63394-3 0  9992,2 25945  51.9932 151.8532 0000659 161.2108  10.8886 12.04776381117537,12.04776381,6.59e-05,LEO
25946,GLOBALSTAR M031,1999,118.42,-1.0,-,52.0,Inactive,0,LEO,Kazakhstan,Globalstar,Unknown,Unknown,Unknown,1 25946U 99058D   24158.94948150 -.00000131  00000+0 -41526-3 0  9994,2 25946  51.9974  68.6765 0001619 112.4188  14.7186 12.16010188118895,12.16010188,0.0001619,LEO
25961,GLOBALSTAR M039,1999,114.08,-1.0,-,51.99,Inactive,0,LEO,Kazakhstan,Globalstar,Unknown,Unknown,Unknown,1 25961U 99062A   24159.71720507 -.00000066  00000+0  20951-3 0  9991,2 25961  51.9862 329.2481 0002212 220.6135 139.4566 12.62293309132952,12.62293309,0.0002212,LEO
25962,GLOBALSTAR M034,1999,122.09,-1.0,-,51.99,Inactive,0,LEO,Kazakhstan,Globalstar,Unknown,Unknown,Unknown,1 25962U 99062B   24159.60362402 -.00000151  00000+0 -11101-2 0  9998,2 25962  51.9879 265.0734 0013880  56.5353 316.4772 11.79427803 94194,11.79427803,0.001388,LEO
25963,GLOBALSTAR M029,1999,120.01,-1.0,-,51.98,Inactive,0,LEO,Kazakhstan,Globalstar,Unknown,Unknown,Unknown,1 25963U 99062C   24159.64641344 -.00000064  00000+0  27079-3 0  9992,2 25963  51.9824  28.7684 0003299  94.8583 299.7243 11.99878877124166,11.99878877,0.0003299,LEO
25964,GLOBALSTAR M061,1999,122.37,-1.0,-,51.98,Inactive,0,LEO,Kazakhstan,Globalstar,Unknown,Unknown,Unknown,1 25964U 99062D   24158.54051270 -.00000075  00000+0  86099-4 0  9994,2 25964  51.9797  86.8900 0006433 342.6673 188.4781 11.76762419 76952,11.76762419,0.0006433,LEO
